GLOBALSTAR M024 [-]     
1 25883U 99043A   24028.55335977 -.00000064  00000+0  32253-4 0  9990
2 25883  52.0014  81.4944 0000973   1.7785 148.2091 11.10153632 58705
GLOBALSTAR M027 [-]     
1 25884U 99043B   24028.53050666 -.00000108  00000+0 -16725-2 0  9992
2 25884  52.0204 145.2044 0020659 252.9465 106.9064 11.04367067 85371
GLOBALSTAR M054 [-]     
1 25885U 99043C   24028.30952814 -.00000025  00000+0  11708-2 0  9997
2 25885  52.0178 357.8901 0004605  24.1374 124.8689 11.39203778 61390
GLOBALSTAR M053 [-]     
1 25886U 99043D   24028.12469229 -.00000036  00000+0  94217-3 0  9990
2 25886  51.9977 277.3574 0003028 319.3861 189.1679 11.27653356 62354
GLOBALSTAR M058 [-]     
1 25907U 99049A   24028.41377613 -.00000082  00000+0  37521-4 0  9994
2 25907  51.9969  19.6914 0002440  22.8837 337.2106 11.93173330481167
GLOBALSTAR M050 [-]     
1 25908U 99049B   24028.52473438  .00000058  00000+0  16486-2 0  9996
2 25908  51.9997  64.8478 0009368 106.0861  60.6313 12.07428189 87108
GLOBALSTAR M033 [-]     
1 25909U 99049C   24028.22705924  .00000061  00000+0  14674-2 0  9993
2 25909  51.9939 332.4481 0011475 314.1487  45.8416 12.20264982473978
GLOBALSTAR M055 [-]     
1 25910U 99049D   24028.31717974 -.00000063  00000+0  27052-3 0  9991
2 25910  52.0046   7.5561 0006956 159.2991 200.8143 12.29394282106065
